# Label: 3W

## Description

...

## Examples

```
U051254 05RFD MHR 00001UPS02UP03///04///05/06////07/08109050510011/120030013////14//////////////15//////////////16//////////////17//////////////180119120060
```

```
U160356 16ROA RIC 00001UPS02UP03///04///05/06////07/08109050510011/120030013////14//////////////15//////////////16//////////////17//////////////180119120060
```

```
U131241 13ONT RNO 00001UPS02UP03///04///05/06////07/08109050510011/120030013////14//////////////15//////////////16//////////////17//////////////180119120060
```

```
U191325 19GSP BWI 00001UPS02UP03///04///05/06////07/08109050510011/120030013////14//////////////15//////////////16//////////////17//////////////180119120060
```

```
U031612 03RNO OAK 00001UPS02UP03///04///05/06////07/08109050510011/120030013////14//////////////15//////////////16//////////////17//////////////180119120060
```

```
U080125 07RFD OAK 00001UPS02UP03///04///05/06////07/08109050510011/120030013////14//////////////15//////////////16//////////////17//////////////180119120060
```

```
U231317 23OAK RNO 00001UPS02UP03///04///05/06////07/08109050510011/120030013////14//////////////15//////////////16//////////////17//////////////180119120060
```

SA 26/10:20
LIPZ 261020Z VRB03KT 3000 BR BKN015 08/07 Q1022 NOSIG=
SA 26/10:20
LIPQ 261020Z 14005KT 1500 BR OVC008 09/09 Q1022=
SA 26/10:00
LDZA 261000Z VRB02KT 2500 BR OVC003 01/00 Q1023 TEMPO 6000
```

```
 NSW
     BKN007=

```

```
 NSW
     BKN007=

```

## Acronyms / Codes

...

## Analysis

...
